NORAD_CAT_ID,OBJECT_NAME,OBJECT_TYPE,EPOCH,MEAN_MOTION,ECCENTRICITY,INCLINATION,RA_OF_ASC_NODE,ARG_OF_PERICENTER,MEAN_ANOMALY,BSTAR,MEAN_MOTION_DOT,MEAN_MOTION_DDOT,TLE_LINE0,TLE_LINE1,TLE_LINE2,SEMIMAJOR_AXIS,PERIOD,APOGEE,PERIGEE,DECAYED
55410.0,STARLINK-5633,PAYLOAD,2024-05-01 22:13:31,14.9833713,0.0002966,69.9994,350.6549,271.1165,88.9654,0.00010552,1.166e-05,0.0,0 STARLINK-5633,1 55410U 23014V   24122.92605659  .00001166  00000-0  10552-3 0  9998,2 55410  69.9994 350.6549 0002966 271.1165  88.9654 14.98337130 70197,6950.171,96.107,574.097,569.974,0.0
55410.0,STARLINK-5633,PAYLOAD,2024-05-02 01:25:47,14.98338012,0.0002971,69.9994,350.3182,271.1881,88.8938,0.0001083,1.2e-05,0.0,0 STARLINK-5633,1 55410U 23014V   24123.05957532  .00001200  00000-0  10830-3 0  9991,2 55410  69.9994 350.3182 0002971 271.1881  88.8938 14.98338012 70215,6950.168,96.106,574.098,569.968,0.0
55410.0,STARLINK-5633,PAYLOAD,2024-05-02 14:14:52,14.9833141,0.00029,69.9994,348.9716,271.2973,88.7854,1.6824e-05,1.08e-06,0.0,0 STARLINK-5633,1 55410U 23014V   24123.59365994  .00000108  00000-0  16824-4 0  9991,2 55410  69.9994 348.9716 0002900 271.2973  88.7854 14.98331410 70295,6950.189,96.107,574.069,570.038,0.0
55410.0,STARLINK-5633,PAYLOAD,2024-05-02 20:39:24,14.98329767,0.0002923,69.9993,348.2982,271.2242,88.8582,-1.0194e-05,-2.15e-06,0.0,0 STARLINK-5633,1 55410U 23014V   24123.86070062 -.00000215  00000-0 -10194-4 0  9995,2 55410  69.9993 348.2982 0002923 271.2242  88.8582 14.98329767 70332,6950.194,96.107,574.09,570.027,0.0
55410.0,STARLINK-5633,PAYLOAD,2024-05-03 01:27:47,14.98353002,0.0002669,69.9992,347.7937,269.0572,91.0282,-0.00032848,-4.012e-05,0.0,0 STARLINK-5633,1 55410U 23014V   24124.06097032 -.00004012  00000-0 -32848-3 0  9992,2 55410  69.9992 347.7937 0002669 269.0572  91.0282 14.98353002 70368,6950.122,96.106,573.842,570.132,0.0
55410.0,STARLINK-5633,PAYLOAD,2024-05-03 07:52:20,14.98347589,0.0002823,69.9992,347.1203,268.2048,91.8788,-0.00018941,-2.353e-05,0.0,0 STARLINK-5633,1 55410U 23014V   24124.32801095 -.00002353  00000-0 -18941-3 0  9997,2 55410  69.9992 347.1203 0002823 268.2048  91.8788 14.98347589 70406,6950.138,96.106,573.966,570.041,0.0
55410.0,STARLINK-5633,PAYLOAD,2024-05-03 20:41:24,14.98342474,0.0002891,69.9991,345.7734,266.0253,94.0576,-4.1805e-05,-5.92e-06,0.0,0 STARLINK-5633,1 55410U 23014V   24124.86209071 -.00000592  00000-0 -41805-4 0  9991,2 55410  69.9991 345.7734 0002891 266.0253  94.0576 14.98342474 70483,6950.154,96.106,574.029,570.01,0.0
55410.0,STARLINK-5633,PAYLOAD,2024-05-03 22:17:32,14.98335315,0.0002906,69.999,345.6052,265.9408,94.1419,7.9755e-05,8.59e-06,0.0,0 STARLINK-5633,1 55410U 23014V   24124.92885123  .00000859  00000-0  79755-4 0  9995,2 55410  69.9990 345.6052 0002906 265.9408  94.1419 14.98335315 70495,6950.176,96.107,574.061,570.022,0.0
55410.0,STARLINK-5633,PAYLOAD,2024-05-04 07:54:21,14.98336412,0.0003087,69.9987,344.5948,268.5263,91.5542,-8.1608e-05,-1.067e-05,0.0,0 STARLINK-5633,1 55410U 23014V   24125.32941297 -.00001067  00000-0 -81608-4 0  9999,2 55410  69.9987 344.5948 0003087 268.5263  91.5542 14.98336412 70556,6950.173,96.107,574.184,569.893,0.0
55410.0,STARLINK-5633,PAYLOAD,2024-05-04 20:43:26,14.9832188,0.0002988,69.9989,343.2482,268.2673,91.8144,1.0345e-05,3e-07,0.0,0 STARLINK-5633,1 55410U 23014V   24125.86350230  .00000030  00000-0  10345-4 0  9996,2 55410  69.9989 343.2482 0002988 268.2673  91.8144 14.98321880 70631,6950.218,96.108,574.16,570.006,0.0
55410.0,STARLINK-5633,PAYLOAD,2024-05-04 23:55:42,14.98324167,0.0002964,69.9988,342.9115,268.2905,91.7914,-1.142e-05,-2.29e-06,0.0,0 STARLINK-5633,1 55410U 23014V   24125.99702172 -.00000229  00000-0 -11420-4 0  9993,2 55410  69.9988 342.9115 0002964 268.2905  91.7914 14.98324167 70658,6950.211,96.107,574.136,570.016,0.0
55410.0,STARLINK-5633,PAYLOAD,2024-05-05 20:45:26,14.98333116,0.000299,69.9989,340.7233,268.7319,91.3498,2.908e-05,2.54e-06,0.0,0 STARLINK-5633,1 55410U 23014V   24126.86489558  .00000254  00000-0  29080-4 0  9997,2 55410  69.9989 340.7233 0002990 268.7319  91.3498 14.98333116 70780,6950.183,96.107,574.126,569.97,0.0
55410.0,STARLINK-5633,PAYLOAD,2024-05-05 22:21:34,14.98333714,0.0002986,69.9989,340.5548,268.6558,91.4259,3.5463e-05,3.3e-06,0.0,0 STARLINK-5633,1 55410U 23014V   24126.93165492  .00000330  00000-0  35463-4 0  9990,2 55410  69.9989 340.5548 0002986 268.6558  91.4259 14.98333714 70797,6950.181,96.107,574.122,569.971,0.0
55410.0,STARLINK-5633,PAYLOAD,2024-05-06 14:22:55,14.98328412,0.0003046,69.9987,338.8704,268.9712,91.1098,0.0001586,1.8e-05,0.0,0 STARLINK-5633,1 55410U 23014V   24127.59925555  .00001800  00000-0  15860-3 0  9998,2 55410  69.9987 338.8704 0003046 268.9712  91.1098 14.98328412 70890,6950.198,96.107,574.18,569.946,0.0
55410.0,STARLINK-5633,PAYLOAD,2024-05-06 20:47:27,14.98332423,0.0003067,69.9986,338.1976,269.8821,90.1987,0.00016637,1.893e-05,0.0,0 STARLINK-5633,1 55410U 23014V   24127.86629292  .00001893  00000-0  16637-3 0  9992,2 55410  69.9986 338.1976 0003067 269.8821  90.1987 14.98332423 70935,6950.185,96.107,574.182,569.919,0.0
55410.0,STARLINK-5633,PAYLOAD,2024-05-06 22:23:35,14.98333274,0.0003043,69.9986,338.0292,269.8342,90.2468,0.0001769,2.019e-05,0.0,0 STARLINK-5633,1 55410U 23014V   24127.93305222  .00002019  00000-0  17690-3 0  9995,2 55410  69.9986 338.0292 0003043 269.8342  90.2468 14.98333274 70948,6950.183,96.107,574.163,569.933,0.0
55410.0,STARLINK-5633,PAYLOAD,2024-05-07 14:24:56,14.98329188,0.0002859,69.9989,336.3455,270.5025,89.5806,3.5139e-05,3.26e-06,0.0,0 STARLINK-5633,1 55410U 23014V   24128.60065871  .00000326  00000-0  35139-4 0  9991,2 55410  69.9989 336.3455 0002859 270.5025  89.5806 14.98329188 71042,6950.195,96.107,574.047,570.073,0.0
55410.0,STARLINK-5633,PAYLOAD,2024-05-07 20:49:29,14.98326959,0.00029,69.9989,335.6722,270.4814,89.6013,-2.0548e-06,-1.18e-06,0.0,0 STARLINK-5633,1 55410U 23014V   24128.86770070 -.00000118  00000-0 -20548-5 0  9993,2 55410  69.9989 335.6722 0002900 270.4814  89.6013 14.98326959 71081,6950.202,96.107,574.083,570.052,0.0
55410.0,STARLINK-5633,PAYLOAD,2024-05-07 22:25:37,14.98326976,0.0002899,69.9989,335.5039,270.5362,89.5464,-3.1867e-06,-1.31e-06,0.0,0 STARLINK-5633,1 55410U 23014V   24128.93446075 -.00000131  00000-0 -31867-5 0  9997,2 55410  69.9989 335.5039 0002899 270.5362  89.5464 14.98326976 71096,6950.202,96.107,574.082,570.052,0.0
55410.0,STARLINK-5633,PAYLOAD,2024-05-08 14:26:57,14.98334937,0.0002944,69.9986,333.8205,270.6186,89.4636,6.5978e-05,6.94e-06,0.0,0 STARLINK-5633,1 55410U 23014V   24129.60205418  .00000694  00000-0  65978-4 0  9997,2 55410  69.9986 333.8205 0002944 270.6186  89.4636 14.98334937 71192,6950.178,96.107,574.089,569.996,0.0
55410.0,STARLINK-5633,PAYLOAD,2024-05-08 20:51:29,14.98335281,0.0002841,69.9988,333.1474,264.8949,95.1886,6.4431e-05,6.76e-06,0.0,0 STARLINK-5633,1 55410U 23014V   24129.86909263  .00000676  00000-0  64431-4 0  9997,2 55410  69.9988 333.1474 0002841 264.8949  95.1886 14.98335281 71232,6950.177,96.107,574.016,570.067,0.0
55410.0,STARLINK-5633,PAYLOAD,2024-05-08 22:27:37,14.98336937,0.0002973,69.9987,332.979,270.2326,89.8493,5.532e-05,5.67e-06,0.0,0 STARLINK-5633,1 55410U 23014V   24129.93585166  .00000567  00000-0  55320-4 0  9993,2 55410  69.9987 332.9790 0002973 270.2326  89.8493 14.98336937 71249,6950.171,96.107,574.103,569.97,0.0
55410.0,STARLINK-5633,PAYLOAD,2024-05-09 14:28:58,14.98330654,0.0003005,69.9987,331.2955,270.5154,89.566,0.00011921,1.33e-05,0.0,0 STARLINK-5633,1 55410U 23014V   24130.60345400  .00001330  00000-0  11921-3 0  9991,2 55410  69.9987 331.2955 0003005 270.5154  89.5660 14.98330654 71347,6950.191,96.107,574.144,569.967,0.0
55410.0,STARLINK-5633,PAYLOAD,2024-05-09 20:53:30,14.98332872,0.0003004,69.9987,330.6222,269.9555,90.126,0.00013963,1.574e-05,0.0,0 STARLINK-5633,1 55410U 23014V   24130.87049296  .00001574  00000-0  13963-3 0  9992,2 55410  69.9987 330.6222 0003004 269.9555  90.1260 14.98332872 71385,6950.184,96.107,574.137,569.961,0.0
55410.0,STARLINK-5633,PAYLOAD,2024-05-09 22:29:38,14.98334306,0.0002995,69.9987,330.454,269.7207,90.3609,0.00015402,1.745e-05,0.0,0 STARLINK-5633,1 55410U 23014V   24130.93725170  .00001745  00000-0  15402-3 0  9991,2 55410  69.9987 330.4540 0002995 269.7207  90.3609 14.98334306 71390,6950.18,96.107,574.126,569.963,0.0
55410.0,STARLINK-5633,PAYLOAD,2024-05-10 12:54:51,14.98338859,0.0002824,69.9993,328.9388,270.0314,90.0522,-0.00011249,-1.435e-05,0.0,0 STARLINK-5633,1 55410U 23014V   24131.53809455 -.00001435  00000-0 -11249-3 0  9990,2 55410  69.9993 328.9388 0002824 270.0314  90.0522 14.98338859 71482,6950.165,96.106,573.993,570.068,0.0
55410.0,STARLINK-5633,PAYLOAD,2024-05-10 20:55:31,14.98327683,0.0003249,69.9987,328.0977,271.2798,88.7989,9.845e-05,1.082e-05,0.0,0 STARLINK-5633,1 55410U 23014V   24131.87189653  .00001082  00000-0  98450-4 0  9994,2 55410  69.9987 328.0977 0003249 271.2798  88.7989 14.98327683 71531,6950.2,96.107,574.323,569.807,0.0
55410.0,STARLINK-5633,PAYLOAD,2024-05-11 12:56:50,14.98353154,0.0003082,69.9985,326.4135,266.0758,94.0049,0.00027753,3.222e-05,0.0,0 STARLINK-5633,1 55410U 23014V   24132.53947081  .00003222  00000-0  27753-3 0  9990,2 55410  69.9985 326.4135 0003082 266.0758  94.0049 14.98353154 71630,6950.121,96.106,574.128,569.844,0.0
55410.0,STARLINK-5633,PAYLOAD,2024-05-11 20:57:32,14.98305692,0.0002529,70.0006,325.5716,271.5441,88.5428,-0.00058746,-7.091e-05,0.0,0 STARLINK-5633,1 55410U 23014V   24132.87329560 -.00007091  00000-0 -58746-3 0  9999,2 55410  70.0006 325.5716 0002529 271.5441  88.5428 14.98305692 71685,6950.268,96.109,573.891,570.375,0.0
55410.0,STARLINK-5633,PAYLOAD,2024-05-11 22:33:41,14.98302308,0.0002515,70.0005,325.4032,272.0619,88.0252,-0.00064263,-7.746e-05,0.0,0 STARLINK-5633,1 55410U 23014V   24132.94005807 -.00007746  00000-0 -64263-3 0  9990,2 55410  70.0005 325.4032 0002515 272.0619  88.0252 14.98302308 71694,6950.279,96.109,573.892,570.396,0.0
